ONEWEB-0183             
1 48219U 21031K   25319.45292551 -.00000480  00000+0 -13296-2 0  9990
2 48219  87.8981 332.2980 0001587  91.9775 268.1536 13.14501981220247
ONEWEB-0185             
1 48220U 21031L   25319.47911634  .00000200  00000+0  50593-3 0  9994
2 48220  87.8991 332.2642 0001547  81.1554 278.9751 13.14502912220172
ONEWEB-0187             
1 48221U 21031M   25319.45914338  .00000173  00000+0  43167-3 0  9995
2 48221  87.8986 332.3128 0001760  82.7903 277.3427 13.14502330220187
ONEWEB-0192             
1 48222U 21031N   25319.50525991 -.00000159  00000+0 -46425-3 0  9991
2 48222  87.8987 332.2951 0001938  91.3254 268.8098 13.14501970220104
ONEWEB-0219             
1 48223U 21031P   25319.78912030  .00000206  00000+0  52019-3 0  9993
2 48223  87.8991 332.2142 0001704  83.7076 276.4248 13.14501566220349
ONEWEB-0202             
1 48224U 21031Q   25319.46563280 -.00000187  00000+0 -53898-3 0  9994
2 48224  87.8983 332.2916 0002448  80.6804 279.4602 13.14503310220280
ONEWEB-0204             
1 48225U 21031R   25319.80419884  .00000167  00000+0  41500-3 0  9996
2 48225  87.8994 332.2130 0001555  97.3190 262.8117 13.14501064220227
ONEWEB-0205             
1 48226U 21031S   25319.47513472  .00000124  00000+0  30016-3 0  9991
2 48226  87.8992 332.2718 0001747  87.2535 272.8795 13.14501535220194
ONEWEB-0206             
1 48227U 21031T   25319.44817877 -.00000231  00000+0 -65756-3 0  9995
2 48227  87.9001 332.2647 0001977  98.8394 261.2959 13.14501459220148
ONEWEB-0182             
1 48228U 21031U   25319.44342402 -.00001693  00000+0 -46023-2 0  9991
2 48228  87.8989 332.2992 0002177  98.0532 262.0845 13.14496665220353
ONEWEB-0186             
1 48229U 21031V   25319.45452309 -.00000403  00000+0 -11208-2 0  9996
2 48229  87.8999 332.2696 0001790  88.5751 271.5584 13.14502315220303
ONEWEB-0181             
1 48230U 21031W   25319.50843134  .00000043  00000+0  80709-4 0  9996
2 48230  87.8982 332.3183 0001934  87.1378 272.9973 13.14500907220165
ONEWEB-0188             
1 48231U 21031X   25319.47038602 -.00000008  00000+0 -56318-4 0  9991
2 48231  87.8980 332.3216 0001745  91.9790 268.1539 13.14502540220061
ONEWEB-0220             
1 48232U 21031Y   25319.73838764 -.00000072  00000+0 -22789-3 0  9993
2 48232  87.8999 332.2131 0001765  81.6977 278.4353 13.14500639220360
ONEWEB-0165             
1 48233U 21031Z   25319.46244428 -.00001696  00000+0 -46090-2 0  9995
2 48233  87.8979 332.2985 0001739  86.7113 273.4215 13.14498103220280
ONEWEB-0199             
1 48234U 21031AA  25319.44659853 -.00000140  00000+0 -41201-3 0  9999
2 48234  87.8994 332.2737 0001870  97.2867 262.8475 13.14501936220180
ONEWEB-0203             
1 48235U 21031AB  25319.74153970  .00000069  00000+0  15199-3 0  9997
2 48235  87.8992 332.2163 0002109  93.0083 267.1288 13.14501517220233
