[{"OBJECT_NAME":"ONEWEB-0183","OBJECT_ID":"2021-031K","EPOCH":"2025-11-15T10:52:12.764064","MEAN_MOTION":13.14501981,"ECCENTRICITY":0.0001587,"INCLINATION":87.8981,"RA_OF_ASC_NODE":332.298,"ARG_OF_PERICENTER":91.9775,"MEAN_ANOMALY":268.1536,"EPHEMERIS_TYPE":0,"CLASSIFICATION_TYPE":"U","NORAD_CAT_ID":48219,"ELEMENT_SET_NO":999,"REV_AT_EPOCH":22024,"BSTAR":-0.0013296,"MEAN_MOTION_DOT":-4.8e-6,"MEAN_MOTION_DDOT":0},{"OBJECT_NAME":"ONEWEB-0185","OBJECT_ID":"2021-031L","EPOCH":"2025-11-15T11:29:55.651776","MEAN_MOTION":13.14502912,"ECCENTRICITY":0.0001547,"INCLINATION":87.8991,"RA_OF_ASC_NODE":332.2642,"ARG_OF_PERICENTER":81.1554,"MEAN_ANOMALY":278.9751,"EPHEMERIS_TYPE":0,"CLASSIFICATION_TYPE":"U","NORAD_CAT_ID":48220,"ELEMENT_SET_NO":999,"REV_AT_EPOCH":22017,"BSTAR":0.00050593,"MEAN_MOTION_DOT":2.0e-6,"MEAN_MOTION_DDOT":0},{"OBJECT_NAME":"ONEWEB-0187","OBJECT_ID":"2021-031M","EPOCH":"2025-11-15T11:01:09.988032","MEAN_MOTION":13.1450233,"ECCENTRICITY":0.000176,"INCLINATION":87.8986,"RA_OF_ASC_NODE":332.3128,"ARG_OF_PERICENTER":82.7903,"MEAN_ANOMALY":277.3427,"EPHEMERIS_TYPE":0,"CLASSIFICATION_TYPE":"U","NORAD_CAT_ID":48221,"ELEMENT_SET_NO":999,"REV_AT_EPOCH":22018,"BSTAR":0.00043167,"MEAN_MOTION_DOT":1.73e-6,"MEAN_MOTION_DDOT":0},{"OBJECT_NAME":"ONEWEB-0192","OBJECT_ID":"2021-031N","EPOCH":"2025-11-15T12:07:34.456224","MEAN_MOTION":13.1450197,"ECCENTRICITY":0.0001938,"INCLINATION":87.8987,"RA_OF_ASC_NODE":332.2951,"ARG_OF_PERICENTER":91.3254,"MEAN_ANOMALY":268.8098,"EPHEMERIS_TYPE":0,"CLASSIFICATION_TYPE":"U","NORAD_CAT_ID":48222,"ELEMENT_SET_NO":999,"REV_AT_EPOCH":22010,"BSTAR":-0.00046425,"MEAN_MOTION_DOT":-1.59e-6,"MEAN_MOTION_DDOT":0},{"OBJECT_NAME":"ONEWEB-0219","OBJECT_ID":"2021-031P","EPOCH":"2025-11-15T18:56:19.993920","MEAN_MOTION":13.14501566,"ECCENTRICITY":0.0001704,"INCLINATION":87.8991,"RA_OF_ASC_NODE":332.2142,"ARG_OF_PERICENTER":83.7076,"MEAN_ANOMALY":276.4248,"EPHEMERIS_TYPE":0,"CLASSIFICATION_TYPE":"U","NORAD_CAT_ID":48223,"ELEMENT_SET_NO":999,"REV_AT_EPOCH":22034,"BSTAR":0.00052019,"MEAN_MOTION_DOT":2.06e-6,"MEAN_MOTION_DDOT":0},{"OBJECT_NAME":"ONEWEB-0202","OBJECT_ID":"2021-031Q","EPOCH":"2025-11-15T11:10:30.673920","MEAN_MOTION":13.1450331,"ECCENTRICITY":0.0002448,"INCLINATION":87.8983,"RA_OF_ASC_NODE":332.2916,"ARG_OF_PERICENTER":80.6804,"MEAN_ANOMALY":279.4602,"EPHEMERIS_TYPE":0,"CLASSIFICATION_TYPE":"U","NORAD_CAT_ID":48224,"ELEMENT_SET_NO":999,"REV_AT_EPOCH":22028,"BSTAR":-0.00053898,"MEAN_MOTION_DOT":-1.87e-6,"MEAN_MOTION_DDOT":0},{"OBJECT_NAME":"ONEWEB-0204","OBJECT_ID":"2021-031R","EPOCH":"2025-11-15T19:18:02.779776","MEAN_MOTION":13.14501064,"ECCENTRICITY":0.0001555,"INCLINATION":87.8994,"RA_OF_ASC_NODE":332.213,"ARG_OF_PERICENTER":97.319,"MEAN_ANOMALY":262.8117,"EPHEMERIS_TYPE":0,"CLASSIFICATION_TYPE":"U","NORAD_CAT_ID":48225,"ELEMENT_SET_NO":999,"REV_AT_EPOCH":22022,"BSTAR":0.000415,"MEAN_MOTION_DOT":1.67e-6,"MEAN_MOTION_DDOT":0},{"OBJECT_NAME":"ONEWEB-0205","OBJECT_ID":"2021-031S","EPOCH":"2025-11-15T11:24:11.639808","MEAN_MOTION":13.14501535,"ECCENTRICITY":0.0001747,"INCLINATION":87.8992,"RA_OF_ASC_NODE":332.2718,"ARG_OF_PERICENTER":87.2535,"MEAN_ANOMALY":272.8795,"EPHEMERIS_TYPE":0,"CLASSIFICATION_TYPE":"U","NORAD_CAT_ID":48226,"ELEMENT_SET_NO":999,"REV_AT_EPOCH":22019,"BSTAR":0.00030016,"MEAN_MOTION_DOT":1.24e-6,"MEAN_MOTION_DDOT":0},{"OBJECT_NAME":"ONEWEB-0206","OBJECT_ID":"2021-031T","EPOCH":"2025-11-15T10:45:22.645728","MEAN_MOTION":13.14501459,"ECCENTRICITY":0.0001977,"INCLINATION":87.9001,"RA_OF_ASC_NODE":332.2647,"ARG_OF_PERICENTER":98.8394,"MEAN_ANOMALY":261.2959,"EPHEMERIS_TYPE":0,"CLASSIFICATION_TYPE":"U","NORAD_CAT_ID":48227,"ELEMENT_SET_NO":999,"REV_AT_EPOCH":22014,"BSTAR":-0.00065756,"MEAN_MOTION_DOT":-2.31e-6,"MEAN_MOTION_DDOT":0},{"OBJECT_NAME":"ONEWEB-0182","OBJECT_ID":"2021-031U","EPOCH":"2025-11-15T10:38:31.835328","MEAN_MOTION":13.14496665,"ECCENTRICITY":0.0002177,"INCLINATION":87.8989,"RA_OF_ASC_NODE":332.2992,"ARG_OF_PERICENTER":98.0532,"MEAN_ANOMALY":262.0845,"EPHEMERIS_TYPE":0,"CLASSIFICATION_TYPE":"U","NORAD_CAT_ID":48228,"ELEMENT_SET_NO":999,"REV_AT_EPOCH":22035,"BSTAR":-0.0046023,"MEAN_MOTION_DOT":-1.693e-5,"MEAN_MOTION_DDOT":0},{"OBJECT_NAME":"ONEWEB-0186","OBJECT_ID":"2021-031V","EPOCH":"2025-11-15T10:54:30.794976","MEAN_MOTION":13.14502315,"ECCENTRICITY":0.000179,"INCLINATION":87.8999,"RA_OF_ASC_NODE":332.2696,"ARG_OF_PERICENTER":88.5751,"MEAN_ANOMALY":271.5584,"EPHEMERIS_TYPE":0,"CLASSIFICATION_TYPE":"U","NORAD_CAT_ID":48229,"ELEMENT_SET_NO":999,"REV_AT_EPOCH":22030,"BSTAR":-0.0011208,"MEAN_MOTION_DOT":-4.03e-6,"MEAN_MOTION_DDOT":0},{"OBJECT_NAME":"ONEWEB-0181","OBJECT_ID":"2021-031W","EPOCH":"2025-11-15T12:12:08.467776","MEAN_MOTION":13.14500907,"ECCENTRICITY":0.0001934,"INCLINATION":87.8982,"RA_OF_ASC_NODE":332.3183,"ARG_OF_PERICENTER":87.1378,"MEAN_ANOMALY":272.9973,"EPHEMERIS_TYPE":0,"CLASSIFICATION_TYPE":"U","NORAD_CAT_ID":48230,"ELEMENT_SET_NO":999,"REV_AT_EPOCH":22016,"BSTAR":8.0709e-5,"MEAN_MOTION_DOT":4.3e-7,"MEAN_MOTION_DDOT":0},{"OBJECT_NAME":"ONEWEB-0188","OBJECT_ID":"2021-031X","EPOCH":"2025-11-15T11:17:21.352128","MEAN_MOTION":13.1450254,"ECCENTRICITY":0.0001745,"INCLINATION":87.898,"RA_OF_ASC_NODE":332.3216,"ARG_OF_PERICENTER":91.979,"MEAN_ANOMALY":268.1539,"EPHEMERIS_TYPE":0,"CLASSIFICATION_TYPE":"U","NORAD_CAT_ID":48231,"ELEMENT_SET_NO":999,"REV_AT_EPOCH":22006,"BSTAR":-5.6318e-5,"MEAN_MOTION_DOT":-8.0e-8,"MEAN_MOTION_DDOT":0},{"OBJECT_NAME":"ONEWEB-0220","OBJECT_ID":"2021-031Y","EPOCH":"2025-11-15T17:43:16.692096","MEAN_MOTION":13.14500639,"ECCENTRICITY":0.0001765,"INCLINATION":87.8999,"RA_OF_ASC_NODE":332.2131,"ARG_OF_PERICENTER":81.6977,"MEAN_ANOMALY":278.4353,"EPHEMERIS_TYPE":0,"CLASSIFICATION_TYPE":"U","NORAD_CAT_ID":48232,"ELEMENT_SET_NO":999,"REV_AT_EPOCH":22036,"BSTAR":-0.00022789,"MEAN_MOTION_DOT":-7.2e-7,"MEAN_MOTION_DDOT":0},{"OBJECT_NAME":"ONEWEB-0165","OBJECT_ID":"2021-031Z","EPOCH":"2025-11-15T11:05:55.185792","MEAN_MOTION":13.14498103,"ECCENTRICITY":0.0001739,"INCLINATION":87.8979,"RA_OF_ASC_NODE":332.2985,"ARG_OF_PERICENTER":86.7113,"MEAN_ANOMALY":273.4215,"EPHEMERIS_TYPE":0,"CLASSIFICATION_TYPE":"U","NORAD_CAT_ID":48233,"ELEMENT_SET_NO":999,"REV_AT_EPOCH":22028,"BSTAR":-0.004609,"MEAN_MOTION_DOT":-1.696e-5,"MEAN_MOTION_DDOT":0},{"OBJECT_NAME":"ONEWEB-0199","OBJECT_ID":"2021-031AA","EPOCH":"2025-11-15T10:43:06.112992","MEAN_MOTION":13.14501936,"ECCENTRICITY":0.000187,"INCLINATION":87.8994,"RA_OF_ASC_NODE":332.2737,"ARG_OF_PERICENTER":97.2867,"MEAN_ANOMALY":262.8475,"EPHEMERIS_TYPE":0,"CLASSIFICATION_TYPE":"U","NORAD_CAT_ID":48234,"ELEMENT_SET_NO":999,"REV_AT_EPOCH":22018,"BSTAR":-0.00041201,"MEAN_MOTION_DOT":-1.4e-6,"MEAN_MOTION_DDOT":0},{"OBJECT_NAME":"ONEWEB-0203","OBJECT_ID":"2021-031AB","EPOCH":"2025-11-15T17:47:49.030080","MEAN_MOTION":13.14501517,"ECCENTRICITY":0.0002109,"INCLINATION":87.8992,"RA_OF_ASC_NODE":332.2163,"ARG_OF_PERICENTER":93.0083,"MEAN_ANOMALY":267.1288,"EPHEMERIS_TYPE":0,"CLASSIFICATION_TYPE":"U","NORAD_CAT_ID":48235,"ELEMENT_SET_NO":999,"REV_AT_EPOCH":22023,"BSTAR":0.00015199,"MEAN_MOTION_DOT":6.9e-7,"MEAN_MOTION_DDOT":0}]
